STARLINK-32102          
1 59699U 24086T   26048.35412837  .00027120  00000+0  99098-3 0  9990
2 59699  42.9963 174.6013 0001569 194.0178 166.0630 15.27594406101003
STARLINK-32092          
1 59700U 24086U   26048.37211556 -.00008142  00000+0 -28635-3 0  9994
2 59700  43.0014 174.7372 0001327 252.8390 107.2316 15.27614775101005
STARLINK-32093          
1 59701U 24086V   26048.36953803  .00006492  00000+0  24547-3 0  9994
2 59701  43.0068 174.7148 0002564 259.2086 100.8477 15.27549494101005
STARLINK-32087          
1 59702U 24086W   26048.35798927 -.00000637  00000+0 -13614-4 0  9999
2 59702  43.0023 174.6343 0001769 276.2825  83.7825 15.27571472101006
STARLINK-32086          
1 59703U 24086X   26048.40538495 -.00000105  00000+0  56945-5 0  9992
2 59703  43.0009 174.1335 0001040 269.6280  90.4453 15.27576855101013
STARLINK-32098          
1 59704U 24086Y   26048.37982439  .00001881  00000+0  77895-4 0  9997
2 59704  42.9995 174.7950 0001086 262.9893  97.0835 15.27561894101004
ZHIHUI TIANWANG-1 01A   
1 59705U 24087A   26048.47180906  .00000022  00000+0  00000+0 0  9994
2 59705  53.1259 175.5146 0023379 198.0421 161.8398  2.00565858 12908
ZHIHUI TIANWANG-1 01B   
1 59706U 24087B   26039.00195650  .00000040  00000+0  00000+0 0  9996
2 59706  53.1259 175.9024 0021577 193.9153 165.9946  2.00565324 12364
STARLINK-11107 [DTC]    
1 59708U 24088A   26048.42438718 -.00001986  00000+0 -11547-4 0  9995
2 59708  53.1593  65.8609 0001214 119.7603 240.3535 15.69697214103079
STARLINK-11088 [DTC]    
1 59709U 24088B   26048.28732901 -.00027677  00000+0 -22484-3 0  9997
2 59709  53.1559  67.1576 0001355  68.0672 292.0490 15.69656567103067
STARLINK-11092 [DTC]    
1 59710U 24088C   26048.34608833 -.00001960  00000+0 -11315-4 0  9991
2 59710  53.1580  66.8061 0001620 146.7918 213.3202 15.69715591103071
STARLINK-11082 [DTC]    
1 59711U 24088D   26048.46852838 -.00000632  00000+0 -34825-6 0  9999
2 59711  53.1589  66.1448 0001827 127.0352 233.0834 15.69702937103098
STARLINK-11108 [DTC]    
1 59712U 24088E   26048.27262053 -.00003074  00000+0 -20530-4 0  9992
2 59712  53.1596  67.0527 0001190 112.6273 247.4871 15.69697746103068
STARLINK-11100 [DTC]    
1 59713U 24088F   26048.33139057 -.00002702  00000+0 -17471-4 0  9994
2 59713  53.1594  66.7054 0001427 103.7205 256.3972 15.69683725103071
STARLINK-11094 [DTC]    
1 59714U 24088G   26048.32647278 -.00009080  00000+0 -70254-4 0  9997
2 59714  53.1561  66.6823 0000933  64.1650 295.9464 15.69682815103078
STARLINK-11101 [DTC]    
1 59715U 24088H   26048.44400955 -.00000172  00000+0  34461-5 0  9993
2 59715  53.1579  65.9800 0001308 111.9729 248.1428 15.69692226103099
STARLINK-11099 [DTC]    
1 59716U 24088J   26048.32156749 -.00002684  00000+0 -17307-4 0  9990
2 59716  53.1572  66.6455 0001330 114.8540 245.2616 15.69700024103076
STARLINK-11084 [DTC]    
1 59717U 24088K   26048.31175549 -.00004585  00000+0 -33024-4 0  9995
2 59717  53.1569  66.5758 0001512 118.3765 241.7405 15.69695252103071
STARLINK-11103 [DTC]    
1 59718U 24088L   26048.30684759  .00000208  00000+0  65816-5 0  9994
2 59718  53.1596  66.5449 0001252  71.5841 288.5312 15.69707963103074
STARLINK-11096 [DTC]    
1 59719U 24088M   26048.29223888 -.00002070  00000+0 -12232-4 0  9999
2 59719  53.1578  67.1774 0001087  57.2280 302.8842 15.69707083103067
STARLINK-11095 [DTC]    
1 59720U 24088N   26048.42928384 -.00000511  00000+0  64125-6 0  9996
2 59720  53.1591  65.8855 0001281  56.2047 303.9093 15.69708348103093
STARLINK-31834          
1 59721U 24088P   26048.53447446  .00002035  00000+0  80807-4 0  9999
2 59721  53.1584 233.7165 0001250 100.4069 259.7073 15.30202609100773
STARLINK-31843          
1 59722U 24088Q   26048.47970098  .00002565  00000+0  98671-4 0  9993
2 59722  53.1581 234.0887 0001593  47.7798 312.3338 15.30210242100589
STARLINK-31766          
1 59723U 24088R   26048.52392140 -.00001558  00000+0 -40446-4 0  9996
2 59723  53.1589 233.6468 0002003 116.7325 243.3881 15.30208846100592
STARLINK-31836          
1 59724U 24088S   26048.52814058  .00000939  00000+0  43819-4 0  9991
2 59724  53.1605 233.6755 0001299 101.4173 258.6974 15.30202090100596
STARLINK-31820          
1 59725U 24088T   26048.47232769  .00000834  00000+0  40273-4 0  9994
2 59725  53.1582 234.0381 0001191  95.1305 264.9832 15.30196397100582
STARLINK-31642          
1 59726U 24088U   26048.47655267  .00000854  00000+0  40955-4 0  9996
2 59726  53.1604 234.0649 0001466  88.7035 271.4134 15.30192185100587
STARLINK-31827          
1 59727U 24088V   26047.89504590  .00002468  00000+0  95435-4 0  9990
2 59727  53.1582 236.8336 0001184  95.1713 264.9423 15.30193565100613
SHIYAN-23 (SY-23)       
1 59728U 24089A   26047.67869444  .00000579  00000+0  70812-4 0  9993
2 59728  97.7766  51.9522 0002360 210.9698 149.1379 14.86873146 95933
STARLINK-31472          
1 59730U 24090A   26048.50002314  .00040176  00000+0  14625-2 0  9991
2 59730  42.9991 297.5010 0001522 264.2520  59.1418 15.27557761  5789
STARLINK-31817          
1 59731U 24090B   26048.09637391  .00000833  00000+0  39784-4 0  9996
2 59731  43.0029 299.5429 0001484 252.4844 107.5846 15.27578309100291
STARLINK-31833          
1 59733U 24090D   26048.12849821 -.00005494  00000+0 -19021-3 0  9996
2 59733  43.0029 299.7806 0001631 277.4653  82.6013 15.27590550100294
STARLINK-31849          
1 59734U 24090E   26048.05252087 -.00001740  00000+0 -53728-4 0  9994
2 59734  43.0042 293.1531 0001541 280.3392  79.7286 15.27575003100369
STARLINK-31661          
1 59735U 24090F   26048.04094598  .00001377  00000+0  59587-4 0  9998
2 59735  43.0106 293.0461 0003219 235.7929 124.2618 15.27573184100369
STARLINK-31707          
1 59736U 24090G   26048.11051329  .00001578  00000+0  66865-4 0  9992
2 59736  42.9993 299.6454 0001197 263.1043  96.9672 15.27577931100292
STARLINK-31821          
1 59737U 24090H   26048.05669075  .00000123  00000+0  13985-4 0  9999
2 59737  42.9981 300.1025 0000455 261.9230  98.1570 15.27577252100288
STARLINK-31819          
1 59738U 24090J   26048.50002314  .00018870  00000+0  71188-3 0  9993
2 59738  42.9997 297.5190 0001361 263.6220  50.6567 15.26714802  5841
STARLINK-31726          
1 59739U 24090K   26048.09251877  .00001399  00000+0  60376-4 0  9994
2 59739  43.0033 299.5129 0001237 264.8600  95.2110 15.27575474100291
STARLINK-31759          
1 59740U 24090L   26048.07468628 -.00001827  00000+0 -56889-4 0  9990
2 59740  43.0019 300.2361 0000890 258.9062 101.1690 15.27586030100284
STARLINK-31818          
1 59741U 24090M   26048.06697194 -.00001618  00000+0 -49299-4 0  9997
2 59741  43.0063 300.1739 0001163 262.4771  97.5949 15.27574650100283
STARLINK-31816          
1 59742U 24090N   26048.01571191  .00000372  00000+0  23030-4 0  9990
2 59742  43.0032 300.6330 0001606 269.6368  90.4300 15.27584401100250
STARLINK-31809          
1 59743U 24090P   26048.04481354 -.00000949  00000+0 -24978-4 0  9999
2 59743  42.9973 293.0928 0000438 298.6079  61.4728 15.27569901100366
STARLINK-31779          
1 59744U 24090Q   26048.03484852 -.00000470  00000+0 -75622-5 0  9997
2 59744  43.0017 299.9427 0000933 287.0075  73.0674 15.27577171100283
STARLINK-31805          
1 59745U 24090R   26048.08866603  .00000244  00000+0  18408-4 0  9996
2 59745  43.0031 299.4824 0001641 272.2907  87.7757 15.27576936100296
STARLINK-31681          
1 59746U 24090S   26048.04866956 -.00001707  00000+0 -52543-4 0  9999
2 59746  42.9980 293.1173 0000498 189.4552 170.6290 15.27568491100369
STARLINK-31636          
1 59747U 24090T   26048.03742503  .00005730  00000+0  21785-3 0  9991
2 59747  43.0041 299.9614 0001522 277.0047  83.0631 15.27542952100287
STARLINK-31640          
1 59748U 24090U   26048.05411820  .00000694  00000+0  34749-4 0  9998
2 59748  42.9983 300.0772 0000762 243.9540 116.1233 15.27577276100288
STARLINK-31677          
1 59749U 24090V   26048.07084298 -.00000080  00000+0  65929-5 0  9991
2 59749  42.9998 300.2028 0000312 124.6728 235.4153 15.27572057100272
STARLINK-31783          
1 59750U 24090W   26048.07853368  .00000658  00000+0  33428-4 0  9993
2 59750  43.0034 300.2614 0001419 251.5015 108.5683 15.27571965100271
STARLINK-31808          
1 59751U 24090X   26048.08480969  .00000773  00000+0  37603-4 0  9995
2 59751  43.0032 299.4515 0000537 294.3322  65.7473 15.27585902100283
STARLINK-31822          
1 59752U 24090Y   26048.10665060 -.00000329  00000+0 -24054-5 0  9992
2 59752  43.0018 299.6128 0003439 239.3714 120.6798 15.27571425100284
STARLINK-11118 [DTC]    
1 59754U 24091B   26048.15509374  .00003039  00000+0  29936-4 0  9997
2 59754  53.1582 307.8228 0000918 110.1308 249.9809 15.69707441102286
STARLINK-11132 [DTC]    
1 59755U 24091C   26048.01794750  .00000054  00000+0  53120-5 0  9994
2 59755  53.1582 308.3872 0001654  81.4307 278.6899 15.69710401102261
STARLINK-11131 [DTC]    
1 59756U 24091D   26048.01304113  .00003430  00000+0  33174-4 0  9992
2 59756  53.1585 308.3556 0001095 107.9494 252.1644 15.69698968102262
STARLINK-11114 [DTC]    
1 59757U 24091E   26048.13547227  .00001837  00000+0  20015-4 0  9990
2 59757  53.1581 307.7116 0000940  79.1822 280.9301 15.69709431102286
STARLINK-11105 [DTC]    
1 59758U 24091F   26048.13059782 -.00003886  00000+0 -27284-4 0  9998
2 59758  53.1591 307.6714 0001448 137.8635 222.2495 15.69662726102287
STARLINK-11097 [DTC]    
1 59759U 24091G   26048.12565698  .00006528  00000+0  58761-4 0  9994
2 59759  53.1578 307.6234 0001480  78.1506 281.9678 15.69683349102289
STARLINK-11098 [DTC]    
1 59760U 24091H   26047.99341312  .00001742  00000+0  19233-4 0  9999
2 59760  53.1584 308.2226 0001168 119.6198 240.4937 15.69710493102264
STARLINK-11117 [DTC]    
1 59761U 24091J   26048.11584816  .00004322  00000+0  40504-4 0  9995
2 59761  53.1561 307.5584 0000956 130.6523 229.4579 15.69716054102288
